{"type": "FeatureCollection", "features": [ {"type": "Feature", "properties": {"norad_id": 32088, "name": "FENGYUN 1C DEB", "group": "fengyun-1c-debris", "lat": 5.624068832776328, "lon": -137.17207450191208, "alt_km": 858.7936874047482, "timestamp": "2025-12-22T05:49:03.785136+00:00", "meta": {"OBJECT_NAME": "FENGYUN 1C DEB", "OBJECT_ID": "1999-025CQE", "EPOCH": "2025-12-19T21:37:34.248576", "MEAN_MOTION": 13.25211072, "ECCENTRICITY": 0.0461693, "INCLINATION": 102.4007, "RA_OF_ASC_NODE": 221.2759, "ARG_OF_PERICENTER": 341.7682, "MEAN_ANOMALY": 16.7342, "EPHEMERIS_TYPE": 0, "CLASSIFICATION_TYPE": "U", "NORAD_CAT_ID": 32088, "ELEMENT_SET_NO": 999, "REV_AT_EPOCH": 59939, "BSTAR": 0.0023611, "MEAN_MOTION_DOT": 1.76e-05, "MEAN_MOTION_DDOT": 0}, "tle": {"line1": "1 32088U 99025CQE 25353.90109084  .00001760  00000+0  23611-2 0  9993", "line2": "2 32088 102.4007 221.2759 0461693 341.7682  16.7342 13.25211072599397"}}, "geometry": {"type": "Point", "coordinates": [-137.17207450191208, 5.624068832776328]}}, {"type": "Feature", "properties": {"norad_id": 32089, "name": "FENGYUN 1C DEB", "group": "fengyun-1c-debris", "lat": -71.33358232058275, "lon": 154.7216392447807, "alt_km": 926.943835476739, "timestamp": "2025-12-22T05:49:03.785146+00:00", "meta": {"OBJECT_NAME": "FENGYUN 1C DEB", "OBJECT_ID": "1999-025CQF", "EPOCH": "2025-12-16T17:52:20.830656", "MEAN_MOTION": 14.14077902, "ECCENTRICITY": 0.01123897, "INCLINATION": 98.6547, "RA_OF_ASC_NODE": 356.1944, "ARG_OF_PERICENTER": 112.6503, "MEAN_ANOMALY": 248.6602, "EPHEMERIS_TYPE": 0, "CLASSIFICATION_TYPE": "U", "NORAD_CAT_ID": 32089, "ELEMENT_SET_NO": 999, "REV_AT_EPOCH": 63272, "BSTAR": 0.00051322825, "MEAN_MOTION_DOT": 9.96e-06, "MEAN_MOTION_DDOT": 0}, "tle": {"line1": "1 32089U 99025CQF 25350.74468554  .00000996  00000+0  51323-3 0  9995", "line2": "2 32089  98.6547 356.1944 0112389 112.6503 248.6602 14.14077902632720"}}, "geometry": {"type": "Point", "coordinates": [154.7216392447807, -71.33358232058275]}}, {"type": "Feature", "properties": {"norad_id": 32093, "name": "FENGYUN 1C DEB", "group": "fengyun-1c-debris", "lat": -54.326626773522825, "lon": 16.79457155139744, "alt_km": 773.2122572502576, "timestamp": "2025-12-22T05:49:03.785156+00:00", "meta": {"OBJECT_NAME": "FENGYUN 1C DEB", "OBJECT_ID": "1999-025CQK", "EPOCH": "2025-12-17T21:09:28.777248", "MEAN_MOTION": 14.37620073, "ECCENTRICITY": 0.00791445, "INCLINATION": 98.9196, "RA_OF_ASC_NODE": 204.9088, "ARG_OF_PERICENTER": 338.4281, "MEAN_ANOMALY": 21.3576, "EPHEMERIS_TYPE": 0, "CLASSIFICATION_TYPE": "U", "NORAD_CAT_ID": 32093, "ELEMENT_SET_NO": 999, "REV_AT_EPOCH": 96591, "BSTAR": 0.00035426884, "MEAN_MOTION_DOT": 1.054e-05, "MEAN_MOTION_DDOT": 0}, "tle": {"line1": "1 32093U 99025CQK 25351.88158307  .00001054  00000+0  35427-3 0  9991", "line2": "2 32093  98.9196 204.9088 0079144 338.4281  21.3576 14.37620073965913"}}, "geometry": {"type": "Point", "coordinates": [16.79457155139744, -54.326626773522825]}}, {"type": "Feature", "properties": {"norad_id": 32094, "name": "FENGYUN 1C DEB", "group": "fengyun-1c-debris", "lat": -3.9239772781926754, "lon": 165.7937867916082, "alt_km": 846.7651548660906, "timestamp": "2025-12-22T05:49:03.785166+00:00", "meta": {"OBJECT_NAME": "FENGYUN 1C DEB", "OBJECT_ID": "1999-025CQL", "EPOCH": "2025-12-21T05:06:54.522720", "MEAN_MOTION": 14.10737989, "ECCENTRICITY": 0.00341017, "INCLINATION": 98.7448, "RA_OF_ASC_NODE": 345.3972, "ARG_OF_PERICENTER": 243.828, "MEAN_ANOMALY": 115.9383, "EPHEMERIS_TYPE": 0, "CLASSIFICATION_TYPE": "U", "NORAD_CAT_ID": 32094, "ELEMENT_SET_NO": 999, "REV_AT_EPOCH": 94484, "BSTAR": 0.00027112552, "MEAN_MOTION_DOT": 4.44e-06, "MEAN_MOTION_DDOT": 0}, "tle": {"line1": "1 32094U 99025CQL 25355.21313105  .00000444  00000+0  27113-3 0  9997", "line2": "2 32094  98.7448 345.3972 0034101 243.8280 115.9383 14.10737989944847"}}, "geometry": {"type": "Point", "coordinates": [165.7937867916082, -3.9239772781926754]}}, {"type": "Feature", "properties": {"norad_id": 32095, "name": "FENGYUN 1C DEB", "group": "fengyun-1c-debris", "lat": 1.4185069854454115, "lon": -168.2110908368073, "alt_km": 863.6731599818377, "timestamp": "2025-12-22T05:49:03.785176+00:00", "meta": {"OBJECT_NAME": "FENGYUN 1C DEB", "OBJECT_ID": "1999-025CQM", "EPOCH": "2025-12-19T07:27:26.684928", "MEAN_MOTION": 14.16046866, "ECCENTRICITY": 0.0079063, "INCLINATION": 98.6406, "RA_OF_ASC_NODE": 8.7292, "ARG_OF_PERICENTER": 73.5373, "MEAN_ANOMALY": 287.4472, "EPHEMERIS_TYPE": 0, "CLASSIFICATION_TYPE": "U", "NORAD_CAT_ID": 32095, "ELEMENT_SET_NO": 999, "REV_AT_EPOCH": 94910, "BSTAR": 0.00022441, "MEAN_MOTION_DOT": 4.15e-06, "MEAN_MOTION_DDOT": 0}, "tle": {"line1": "1 32095U 99025CQM 25353.31072552  .00000415  00000+0  22441-3 0  9992", "line2": "2 32095  98.6406   8.7292 0079063  73.5373 287.4472 14.16046866949104"}}, "geometry": {"type": "Point", "coordinates": [-168.2110908368073, 1.4185069854454115]}}, {"type": "Feature", "properties": {"norad_id": 32096, "name": "FENGYUN 1C DEB", "group": "fengyun-1c-debris", "lat": 12.63954462636504, "lon": -152.94196321252264, "alt_km": 868.6446960609946, "timestamp": "2025-12-22T05:49:03.785186+00:00", "meta": {"OBJECT_NAME": "FENGYUN 1C DEB", "OBJECT_ID": "1999-025CQN", "EPOCH": "2025-12-19T20:01:42.439872", "MEAN_MOTION": 13.90214734, "ECCENTRICITY": 0.01346293, "INCLINATION": 99.0729, "RA_OF_ASC_NODE": 22.6552, "ARG_OF_PERICENTER": 120.8024, "MEAN_ANOMALY": 240.6466, "EPHEMERIS_TYPE": 0, "CLASSIFICATION_TYPE": "U", "NORAD_CAT_ID": 32096, "ELEMENT_SET_NO": 999, "REV_AT_EPOCH": 92960, "BSTAR": 0.00089068221, "MEAN_MOTION_DOT": 1.144e-05, "MEAN_MOTION_DDOT": 0}, "tle": {"line1": "1 32096U 99025CQN 25353.83451898  .00001144  00000+0  89068-3 0  9992", "line2": "2 32096  99.0729  22.6552 0134629 120.8024 240.6466 13.90214734929600"}}, "geometry": {"type": "Point", "coordinates": [-152.94196321252264, 12.63954462636504]}}, {"type": "Feature", "properties": {"norad_id": 32098, "name": "FENGYUN 1C DEB", "group": "fengyun-1c-debris", "lat": 25.135232396955843, "lon": 172.51868310883904, "alt_km": 755.2845799054949, "timestamp": "2025-12-22T05:49:03.785195+00:00", "meta": {"OBJECT_NAME": "FENGYUN 1C DEB", "OBJECT_ID": "1999-025CQQ", "EPOCH": "2025-12-17T05:04:00.480288", "MEAN_MOTION": 14.20263212, "ECCENTRICITY": 0.01958107, "INCLINATION": 98.6122, "RA_OF_ASC_NODE": 343.5394, "ARG_OF_PERICENTER": 106.9951, "MEAN_ANOMALY": 255.2785, "EPHEMERIS_TYPE": 0, "CLASSIFICATION_TYPE": "U", "NORAD_CAT_ID": 32098, "ELEMENT_SET_NO": 999, "REV_AT_EPOCH": 64291, "BSTAR": 0.00022141039, "MEAN_MOTION_DOT": 5.31e-06, "MEAN_MOTION_DDOT": 0}, "tle": {"line1": "1 32098U 99025CQQ 25351.21111667  .00000531  00000+0  22141-3 0  9999", "line2": "2 32098  98.6122 343.5394 0195810 106.9951 255.2785 14.20263212642917"}}, "geometry": {"type": "Point", "coordinates": [172.51868310883904, 25.135232396955843]}}, {"type": "Feature", "properties": {"norad_id": 32099, "name": "FENGYUN 1C DEB", "group": "fengyun-1c-debris", "lat": 23.0228162071401, "lon": -36.46133171950883, "alt_km": 1093.6782391644083, "timestamp": "2025-12-22T05:49:03.785206+00:00", "meta": {"OBJECT_NAME": "FENGYUN 1C DEB", "OBJECT_ID": "1999-025CQR", "EPOCH": "2025-12-13T04:24:17.454240", "MEAN_MOTION": 13.91775545, "ECCENTRICITY": 0.03428827, "INCLINATION": 98.2819, "RA_OF_ASC_NODE": 318.9761, "ARG_OF_PERICENTER": 273.8166, "MEAN_ANOMALY": 102.561, "EPHEMERIS_TYPE": 0, "CLASSIFICATION_TYPE": "U", "NORAD_CAT_ID": 32099, "ELEMENT_SET_NO": 999, "REV_AT_EPOCH": 64694, "BSTAR": 0.0015539286, "MEAN_MOTION_DOT": 3.154e-05, "MEAN_MOTION_DDOT": 0}, "tle": {"line1": "1 32099U 99025CQR 25347.18353535  .00003154  00000+0  15539-2 0  9999", "line2": "2 32099  98.2819 318.9761 0342882 273.8166 102.5610 13.91775545646948"}}, "geometry": {"type": "Point", "coordinates": [-36.46133171950883, 23.0228162071401]}}, {"type": "Feature", "properties": {"norad_id": 32101, "name": "FENGYUN 1C DEB", "group": "fengyun-1c-debris", "lat": 78.11441418771791, "lon": -153.89061217542238, "alt_km": 936.0996077906993, "timestamp": "2025-12-22T05:49:03.785216+00:00", "meta": {"OBJECT_NAME": "FENGYUN 1C DEB", "OBJECT_ID": "1999-025CQT", "EPOCH": "2025-12-20T00:18:35.789472", "MEAN_MOTION": 14.01690223, "ECCENTRICITY": 0.01201229, "INCLINATION": 99.0336, "RA_OF_ASC_NODE": 253.0019, "ARG_OF_PERICENTER": 218.4634, "MEAN_ANOMALY": 140.7924, "EPHEMERIS_TYPE": 0, "CLASSIFICATION_TYPE": "U", "NORAD_CAT_ID": 32101, "ELEMENT_SET_NO": 999, "REV_AT_EPOCH": 93284, "BSTAR": 0.0014180286, "MEAN_MOTION_DOT": 2.246e-05, "MEAN_MOTION_DDOT": 0}, "tle": {"line1": "1 32101U 99025CQT 25354.01291423  .00002246  00000+0  14180-2 0  9992", "line2": "2 32101  99.0336 253.0019 0120122 218.4634 140.7924 14.01690223932846"}}, "geometry": {"type": "Point", "coordinates": [-153.89061217542238, 78.11441418771791]}}, {"type": "Feature", "properties": {"norad_id": 32105, "name": "FENGYUN 1C DEB", "group": "fengyun-1c-debris", "lat": 72.71970279989783, "lon": -138.8070149030965, "alt_km": 888.309988048878, "timestamp": "2025-12-22T05:49:03.785227+00:00", "meta": {"OBJECT_NAME": "FENGYUN 1C DEB", "OBJECT_ID": "1999-025CQX", "EPOCH": "2025-12-17T05:19:37.418304", "MEAN_MOTION": 13.40288111, "ECCENTRICITY": 0.03945751, "INCLINATION": 103.4645, "RA_OF_ASC_NODE": 344.1703, "ARG_OF_PERICENTER": 65.7841, "MEAN_ANOMALY": 298.3981, "EPHEMERIS_TYPE": 0, "CLASSIFICATION_TYPE": "U", "NORAD_CAT_ID": 32105, "ELEMENT_SET_NO": 999, "REV_AT_EPOCH": 59771, "BSTAR": 0.0022256108, "MEAN_MOTION_DOT": 1.853e-05, "MEAN_MOTION_DDOT": 0}, "tle": {"line1": "1 32105U 99025CQX 25351.22196086  .00001853  00000+0  22256-2 0  9991", "line2": "2 32105 103.4645 344.1703 0394575  65.7841 298.3981 13.40288111597710"}}, "geometry": {"type": "Point", "coordinates": [-138.8070149030965, 72.71970279989783]}}]}